     2              NAVIGATION DATA                         RINEX VERSION / TYPE
CCRINEXN V1.6.0 UX  CDDIS               14-JAN-25 15:53     PGM / RUN BY / DATE 
IGS BROADCAST EPHEMERIS FILE                                COMMENT             
    0.1956D-07 -0.7451D-08 -0.5960D-07  0.1192D-06          ION ALPHA           
    0.1372D+06 -0.1638D+06  0.6554D+05 -0.6554D+05          ION BETA            
   -0.372529029846D-08-0.710542735760D-14   405504     2349 DELTA-UTC: A0,A1,T,W
    18                                                      LEAP SECONDS        
                                                            END OF HEADER       
 4 25  1 14  8  0  0.0 0.511716119945D-03 0.591171556152D-11 0.000000000000D+00
    0.184000000000D+03-0.111375000000D+03 0.413802950840D-08 0.950264696305D+00
   -0.567547976971D-05 0.322832062375D-02 0.100620090962D-04 0.515368091583D+04
    0.201600000000D+06 0.335276126862D-07 0.178733669432D-01-0.558793544769D-08
    0.967181952656D+00 0.186718750000D+03-0.295743789545D+01-0.777032366517D-08
    0.460733477113D-10 0.100000000000D+01 0.234900000000D+04 0.000000000000D+00
    0.200000000000D+01 0.000000000000D+00-0.465661300000D-08 0.952000000000D+03
    0.194460000000D+06 0.400000000000D+01 0.000000000000D+00 0.000000000000D+00
 5 25  1 14  8  0  0.0-0.198977999389D-03-0.113686837722D-11 0.000000000000D+00
    0.400000000000D+01-0.752812500000D+02 0.456876173584D-08 0.161570429842D+01
   -0.394880771637D-05 0.558816303965D-02 0.730156898499D-06 0.515373249435D+04
    0.201600000000D+06-0.128522515297D-06-0.111256760718D+01-0.160187482834D-06
    0.974503458266D+00 0.374093750000D+03 0.132409502697D+01-0.833999025121D-08
   -0.127505311108D-09 0.100000000000D+01 0.234900000000D+04 0.000000000000D+00
    0.200000000000D+01 0.000000000000D+00-0.107102096081D-07 0.400000000000D+01
    0.194418000000D+06 0.400000000000D+01 0.000000000000D+00 0.000000000000D+00
 7 25  1 14  8  0  0.0-0.135325826705D-04 0.227373675443D-12 0.000000000000D+00
    0.120000000000D+03 0.179375000000D+02 0.481662920337D-08-0.149167670365D+01
    0.994652509689D-06 0.189520225395D-01 0.759400427341D-05 0.515375260544D+04
    0.201600000000D+06 0.439584255218D-06 0.102899226326D+01 0.147148966789D-06
    0.950171679584D+00 0.224062500000D+03-0.208332095541D+01-0.791318675885D-08
    0.487877464912D-09 0.100000000000D+01 0.234900000000D+04 0.000000000000D+00
    0.280000000000D+01 0.000000000000D+00-0.107102096081D-07 0.120000000000D+03
    0.194442000000D+06 0.400000000000D+01 0.000000000000D+00 0.000000000000D+00
 8 25  1 14  8  0  0.0 0.460546463728D-03 0.784439180279D-11 0.000000000000D+00
    0.590000000000D+02 0.601562500000D+02 0.435553856852D-08 0.126489123262D+01
    0.329688191414D-05 0.103457395453D-01 0.118203461170D-04 0.515374280548D+04
    0.201600000000D+06-0.139698386192D-06 0.308501896358D+01 0.987201929092D-07
    0.949992106390D+00 0.145656250000D+03 0.405738396770D+00-0.784889836669D-08
   -0.568237955106D-09 0.100000000000D+01 0.234900000000D+04 0.000000000000D+00
    0.200000000000D+01 0.000000000000D+00 0.465661287308D-08 0.590000000000D+02
    0.198828000000D+06 0.400000000000D+01 0.000000000000D+00 0.000000000000D+00
 9 25  1 14  8  0  0.0 0.528081785887D-03 0.150066625793D-10 0.000000000000D+00
    0.113000000000D+03-0.113000000000D+03 0.420267505828D-08 0.184274710552D+01
   -0.592321157455D-05 0.316228612792D-02 0.979006290436D-05 0.515379155350D+04
    0.201600000000D+06 0.447034835815D-07-0.433815570503D-01-0.782310962677D-07
    0.960978855232D+00 0.186937500000D+03 0.202943304402D+01-0.778425281680D-08
    0.214294640518D-10 0.100000000000D+01 0.234900000000D+04 0.000000000000D+00
    0.200000000000D+01 0.000000000000D+00 0.931322600000D-09 0.113000000000D+03
    0.194460000000D+06 0.400000000000D+01 0.000000000000D+00 0.000000000000D+00
10 25  1 14  8  0  0.0-0.276173930615D-03-0.160298441187D-10 0.000000000000D+00
    0.830000000000D+02-0.922500000000D+02 0.418946022212D-08-0.305555855253D+01
   -0.479258596897D-05 0.101204230450D-01 0.530853867531D-06 0.515365395355D+04
    0.201600000000D+06-0.167638063431D-07-0.106071908405D+01-0.141561031342D-06
    0.987297993496D+00 0.385343750000D+03-0.232486527298D+01-0.806890753096D-08
   -0.187150652719D-09 0.100000000000D+01 0.234900000000D+04 0.000000000000D+00
    0.200000000000D+01 0.000000000000D+00 0.232830643654D-08 0.830000000000D+02
    0.194418000000D+06 0.400000000000D+01 0.000000000000D+00 0.000000000000D+00
11 25  1 14  8  0  0.0-0.751726794988D-03 0.102318153950D-11 0.000000000000D+00
    0.100000000000D+03 0.122406250000D+03 0.448982987658D-08 0.376107191494D+00
    0.624172389507D-05 0.175171101000D-02 0.308267772198D-05 0.515359829140D+04
    0.201600000000D+06-0.745058059692D-08-0.206651323798D+01 0.540167093277D-07
    0.965850691352D+00 0.325000000000D+03-0.233236445584D+01-0.822498546080D-08
    0.312870175156D-09 0.100000000000D+01 0.234900000000D+04 0.000000000000D+00
    0.200000000000D+01 0.000000000000D+00-0.884756445885D-08 0.356000000000D+03
    0.194422000000D+06 0.400000000000D+01 0.000000000000D+00 0.000000000000D+00
12 25  1 14  8  0  0.0-0.564366113395D-03-0.216004991671D-11 0.000000000000D+00
    0.750000000000D+02-0.162187500000D+02 0.472483966568D-08-0.222519363453D+01
   -0.786036252975D-06 0.900426274166D-02 0.625476241112D-05 0.515375105476D+04
    0.201600000000D+06 0.154599547386D-06 0.214568314601D+01 0.260770320892D-07
    0.960635231868D+00 0.258062500000D+03 0.146846612879D+01-0.782925469131D-08
   -0.467876631797D-09 0.100000000000D+01 0.234900000000D+04 0.000000000000D+00
    0.280000000000D+01 0.000000000000D+00-0.125728547573D-07 0.750000000000D+02
    0.195732000000D+06 0.400000000000D+01 0.000000000000D+00 0.000000000000D+00
13 25  1 14  8  0  0.0 0.693423673511D-03 0.125055521494D-11 0.000000000000D+00
    0.220000000000D+02-0.955625000000D+02 0.403695386962D-08 0.999678628239D+00
   -0.486895442009D-05 0.884257699363D-02 0.113528221846D-04 0.515369232559D+04
    0.201600000000D+06-0.102445483208D-06 0.125883862265D+00 0.670552253723D-07
    0.973380485776D+00 0.168718750000D+03 0.967385860030D+00-0.775639451354D-08
    0.130005415247D-09 0.100000000000D+01 0.234900000000D+04 0.000000000000D+00
    0.200000000000D+01 0.000000000000D+00-0.111758708954D-07 0.220000000000D+02
    0.194418000000D+06 0.400000000000D+01 0.000000000000D+00 0.000000000000D+00
14 25  1 14  8  0  0.0 0.579686369747D-03 0.716227077646D-11 0.000000000000D+00
    0.800000000000D+01-0.201250000000D+02 0.511414159595D-08-0.235136127950D+01
   -0.106357038021D-05 0.519260647707D-02 0.605545938015D-05 0.515369445992D+04
    0.201600000000D+06-0.409781932831D-07 0.209758024907D+01-0.745058059692D-07
    0.943924782393D+00 0.254656250000D+03-0.286320565999D+01-0.817391190481D-08
   -0.356443418728D-09 0.100000000000D+01 0.234900000000D+04 0.000000000000D+00
    0.200000000000D+01 0.000000000000D+00-0.791624200000D-08 0.520000000000D+03
    0.195030000000D+06 0.400000000000D+01 0.000000000000D+00 0.000000000000D+00
15 25  1 14  8  0  0.0 0.251460354775D-03 0.443378667114D-11 0.000000000000D+00
    0.440000000000D+02-0.134718750000D+03 0.492770525870D-08 0.263130387728D+00
   -0.683404505253D-05 0.161278938176D-01 0.973232090473D-05 0.515375603867D+04
    0.201600000000D+06-0.223517417908D-06-0.177120136622D+00 0.186264514923D-07
    0.938191618144D+00 0.183312500000D+03 0.138764946800D+01-0.844892336014D-08
   -0.942896418278D-10 0.100000000000D+01 0.234900000000D+04 0.000000000000D+00
    0.200000000000D+01 0.000000000000D+00-0.102445483208D-07 0.440000000000D+02
    0.194418000000D+06 0.400000000000D+01 0.000000000000D+00 0.000000000000D+00
16 25  1 14  8  0  0.0-0.782497227192D-04 0.943600753089D-11 0.000000000000D+00
    0.135000000000D+03-0.195312500000D+02 0.475626954629D-08 0.228697240462D+01
   -0.125728547573D-05 0.144860105356D-01 0.638514757156D-05 0.515366883850D+04
    0.201600000000D+06-0.633299350738D-07 0.216325480804D+01-0.283122062683D-06
    0.960001105156D+00 0.258156250000D+03 0.868558306300D+00-0.789961476495D-08
   -0.473948313278D-09 0.100000000000D+01 0.234900000000D+04 0.000000000000D+00
    0.280000000000D+01 0.000000000000D+00-0.107102096081D-07 0.135000000000D+03
    0.194418000000D+06 0.400000000000D+01 0.000000000000D+00 0.000000000000D+00
17 25  1 14  8  0  0.0 0.474946573377D-03-0.175077730091D-10 0.000000000000D+00
    0.680000000000D+02 0.673125000000D+02 0.401338145916D-08 0.125287665216D+01
    0.345334410667D-05 0.133123614360D-01 0.110231339931D-04 0.515361420822D+04
    0.201600000000D+06 0.838190317154D-07-0.309991757439D+01-0.335276126862D-06
    0.965816504420D+00 0.166718750000D+03-0.124110862900D+01-0.771389274317D-08
   -0.239295681911D-09 0.100000000000D+01 0.234900000000D+04 0.000000000000D+00
    0.200000000000D+01 0.000000000000D+00-0.107102100000D-07 0.680000000000D+02
    0.199620000000D+06 0.400000000000D+01 0.000000000000D+00 0.000000000000D+00
18 25  1 14  8  0  0.0-0.657916534692D-03 0.136424205266D-11 0.000000000000D+00
    0.710000000000D+02 0.140281250000D+03 0.422124726046D-08-0.759911336283D+00
    0.729225575924D-05 0.480334716849D-02 0.330246984959D-05 0.515371572876D+04
    0.201600000000D+06 0.106170773506D-06-0.209363725329D+01-0.279396772385D-07
    0.974076138432D+00 0.320875000000D+03-0.293149666257D+01-0.817712632442D-08
    0.386801826134D-09 0.100000000000D+01 0.234900000000D+04 0.000000000000D+00
    0.200000000000D+01 0.000000000000D+00-0.838190317154D-08 0.839000000000D+03
    0.194418000000D+06 0.400000000000D+01 0.000000000000D+00 0.000000000000D+00
